[{"OBJECT_NAME":"QIANFAN-104","OBJECT_ID":"2025-233P","EPOCH":"2026-03-09T22:37:03.406656","MEAN_MOTION":13.51010539,"ECCENTRICITY":0.00021082,"INCLINATION":88.9948,"RA_OF_ASC_NODE":53.1192,"ARG_OF_PERICENTER":85.1349,"MEAN_ANOMALY":275.0043,"EPHEMERIS_TYPE":0,"CLASSIFICATION_TYPE":"U","NORAD_CAT_ID":66046,"ELEMENT_SET_NO":999,"REV_AT_EPOCH":1983,"BSTAR":7.1555693e-5,"MEAN_MOTION_DOT":5.8e-7,"MEAN_MOTION_DDOT":0},{"OBJECT_NAME":"COSMOS 970 DEB","OBJECT_ID":"1977-121BK","EPOCH":"2026-03-09T11:12:03.546144","MEAN_MOTION":13.73164614,"ECCENTRICITY":0.01122536,"INCLINATION":65.9503,"RA_OF_ASC_NODE":68.5518,"ARG_OF_PERICENTER":164.9843,"MEAN_ANOMALY":358.2996,"EPHEMERIS_TYPE":0,"CLASSIFICATION_TYPE":"U","NORAD_CAT_ID":14906,"ELEMENT_SET_NO":999,"REV_AT_EPOCH":11667,"BSTAR":0.00046413406,"MEAN_MOTION_DOT":3.71e-6,"MEAN_MOTION_DDOT":0}]
